[{"OBJECT_NAME":"HAWK-11A","OBJECT_ID":"2024-247F","EPOCH":"2026-03-09T12:17:43.893312","MEAN_MOTION":15.28849427,"ECCENTRICITY":0.00054663,"INCLINATION":44.9941,"RA_OF_ASC_NODE":114.3328,"ARG_OF_PERICENTER":327.3713,"MEAN_ANOMALY":32.6832,"EPHEMERIS_TYPE":0,"CLASSIFICATION_TYPE":"U","NORAD_CAT_ID":62382,"ELEMENT_SET_NO":999,"REV_AT_EPOCH":6774,"BSTAR":0.00034106017,"MEAN_MOTION_DOT":9.457e-5,"MEAN_MOTION_DDOT":0},{"OBJECT_NAME":"STARLINK-36479","OBJECT_ID":"2026-003U","EPOCH":"2026-03-09T11:03:24.547392","MEAN_MOTION":15.27597927,"ECCENTRICITY":2.488e-5,"INCLINATION":42.9952,"RA_OF_ASC_NODE":227.9371,"ARG_OF_PERICENTER":253.6948,"MEAN_ANOMALY":106.3876,"EPHEMERIS_TYPE":0,"CLASSIFICATION_TYPE":"U","NORAD_CAT_ID":67352,"ELEMENT_SET_NO":999,"REV_AT_EPOCH":879,"BSTAR":0.00098665614,"MEAN_MOTION_DOT":0.00027003,"MEAN_MOTION_DDOT":0}]
